{
    "links": {
        "self": "http://www.neowsapp.com/rest/v1/neo/3753294?api_key=iIulBulltgU6a56xZRHN4H3l9WmuAYTsLGpBGhQ2"
    },
    "id": "3753294",
    "neo_reference_id": "3753294",
    "name": "(2016 JA29)",
    "designation": "2016 JA29",
    "nasa_jpl_url": "http://ssd.jpl.nasa.gov/sbdb.cgi?sstr=3753294",
    "absolute_magnitude_h": 24.6,
    "estimated_diameter": {
        "kilometers": {
            "estimated_diameter_min": 0.0319561887,
            "estimated_diameter_max": 0.0714562102
        },
        "meters": {
            "estimated_diameter_min": 31.9561886721,
            "estimated_diameter_max": 71.4562101727
        },
        "miles": {
            "estimated_diameter_min": 0.0198566489,
            "estimated_diameter_max": 0.0444008168
        },
        "feet": {
            "estimated_diameter_min": 104.8431420431,
            "estimated_diameter_max": 234.436392583
        }
    },
    "is_potentially_hazardous_asteroid": false,
    "close_approach_data": [
        {
            "close_approach_date": "2016-05-09",
            "close_approach_date_full": "2016-May-09 08:22",
            "epoch_date_close_approach": 1462782120000,
            "relative_velocity": {
                "kilometers_per_second": "15.4841855971",
                "kilometers_per_hour": "55743.0681494678",
                "miles_per_hour": "34636.5747620957"
            },
            "miss_distance": {
                "astronomical": "0.0844848945",
                "lunar": "32.8646239605",
                "kilometers": "12638760.264374715",
                "miles": "7853361.463072467"
            },
            "orbiting_body": "Earth"
        }
    ],
    "orbital_data": {
        "orbit_id": "4",
        "orbit_determination_date": "2019-07-19 05:26:06",
        "first_observation_date": "2016-05-11",
        "last_observation_date": "2016-05-13",
        "data_arc_in_days": 2,
        "observations_used": 41,
        "orbit_uncertainty": "8",
        "minimum_orbit_intersection": ".0844714",
        "jupiter_tisserand_invariant": "4.459",
        "epoch_osculation": "2457520.5",
        "eccentricity": ".273011036745287",
        "semi_major_axis": "1.461552832056328",
        "inclination": "28.13163069532167",
        "ascending_node_longitude": "226.656696852443",
        "orbital_period": "645.3869879616767",
        "perihelion_distance": "1.06253277811862",
        "perihelion_argument": "31.22770336383705",
        "aphelion_distance": "1.860572885994037",
        "perihelion_time": "2457546.741523975691",
        "mean_anomaly": "345.3623503301716",
        "mean_motion": ".5578048623772019",
        "equinox": "J2000",
        "orbit_class": {
            "orbit_class_type": "AMO",
            "orbit_class_description": "Near-Earth asteroid orbits similar to that of 1221 Amor",
            "orbit_class_range": "1.017 AU < q (perihelion) < 1.3 AU"
        }
    },
    "is_sentry_object": false
}